{
  "type": "FeatureCollection",
  "features": [
    {
      "type": "Feature",
      "properties": {
        "id": "L1",
        "name": "Metro de Lima — Línea 1",
        "mode": "metro",
        "status": "operational",
        "color": "#2E7D32"
      },
      "geometry": {
        "type": "LineString",
        "coordinates": [
          [
            -76.9392,
            -12.2141
          ],
          [
            -76.9408,
            -12.2099
          ],
          [
            -76.9424,
            -12.2057
          ],
          [
            -76.944,
            -12.2015
          ],
          [
            -76.9463,
            -12.1977
          ],
          [
            -76.9485,
            -12.194
          ],
          [
            -76.9508,
            -12.1902
          ],
          [
            -76.9525,
            -12.1864
          ],
          [
            -76.9543,
            -12.1826
          ],
          [
            -76.956,
            -12.1788
          ],
          [
            -76.9574,
            -12.1746
          ],
          [
            -76.9588,
            -12.1704
          ],
          [
            -76.9602,
            -12.1662
          ],
          [
            -76.9636,
            -12.1633
          ],
          [
            -76.9671,
            -12.1604
          ],
          [
            -76.9705,
            -12.1575
          ],
          [
            -76.9734,
            -12.1552
          ],
          [
            -76.9763,
            -12.1528
          ],
          [
            -76.9792,
            -12.1505
          ],
          [
            -76.982,
            -12.1477
          ],
          [
            -76.9848,
            -12.1448
          ],
          [
            -76.9876,
            -12.142
          ],
          [
            -76.9894,
            -12.1396
          ],
          [
            -76.9912,
            -12.1372
          ],
          [
            -76.993,
            -12.1348
          ],
          [
            -76.9949,
            -12.1315
          ],
          [
            -76.9967,
            -12.1283
          ],
          [
            -76.9986,
            -12.125
          ],
          [
            -76.9996,
            -12.1207
          ],
          [
            -77.0006,
            -12.1163
          ],
          [
            -77.0016,
            -12.112
          ],
          [
            -77.0009,
            -12.109
          ],
          [
            -77.0003,
            -12.106
          ],
          [
            -76.9996,
            -12.103
          ],
          [
            -76.9993,
            -12.1005
          ],
          [
            -76.9989,
            -12.098
          ],
          [
            -76.9986,
            -12.0955
          ],
          [
            -76.9997,
            -12.0917
          ],
          [
            -77.0009,
            -12.0878
          ],
          [
            -77.002,
            -12.084
          ],
          [
            -77.0039,
            -12.0803
          ],
          [
            -77.0057,
            -12.0767
          ],
          [
            -77.0076,
            -12.073
          ],
          [
            -77.0094,
            -12.0683
          ],
          [
            -77.0112,
            -12.0637
          ],
          [
            -77.013,
            -12.059
          ],
          [
            -77.0112,
            -12.0557
          ],
          [
            -77.0093,
            -12.0523
          ],
          [
            -77.0075,
            -12.049
          ],
          [
            -77.0068,
            -12.047
          ],
          [
            -77.0062,
            -12.045
          ],
          [
            -77.0055,
            -12.043
          ],
          [
            -77.004,
            -12.0397
          ],
          [
            -77.0025,
            -12.0363
          ],
          [
            -77.001,
            -12.033
          ],
          [
            -76.9993,
            -12.03
          ],
          [
            -76.9977,
            -12.027
          ],
          [
            -76.996,
            -12.024
          ],
          [
            -76.9955,
            -12.0207
          ],
          [
            -76.995,
            -12.0173
          ],
          [
            -76.9945,
            -12.014
          ],
          [
            -76.9947,
            -12.0113
          ],
          [
            -76.9948,
            -12.0087
          ],
          [
            -76.995,
            -12.006
          ],
          [
            -76.9952,
            -12.0037
          ],
          [
            -76.9953,
            -12.0013
          ],
          [
            -76.9955,
            -11.999
          ],
          [
            -76.9947,
            -11.9968
          ],
          [
            -76.9938,
            -11.9947
          ],
          [
            -76.993,
            -11.9925
          ],
          [
            -76.9922,
            -11.9905
          ],
          [
            -76.9913,
            -11.9885
          ],
          [
            -76.9905,
            -11.9865
          ],
          [
            -76.9882,
            -11.9863
          ],
          [
            -76.9858,
            -11.9862
          ],
          [
            -76.9835,
            -11.986
          ]
        ]
      }
    },
    {
      "type": "Feature",
      "properties": {
        "id": "L2",
        "name": "Metro de Lima — Línea 2",
        "mode": "metro",
        "status": "construction",
        "color": "#F2A900"
      },
      "geometry": {
        "type": "LineString",
        "coordinates": [
          [
            -77.147,
            -12.051
          ],
          [
            -77.1437,
            -12.0517
          ],
          [
            -77.1403,
            -12.0523
          ],
          [
            -77.137,
            -12.053
          ],
          [
            -77.1337,
            -12.0538
          ],
          [
            -77.1303,
            -12.0547
          ],
          [
            -77.127,
            -12.0555
          ],
          [
            -77.124,
            -12.0563
          ],
          [
            -77.121,
            -12.0572
          ],
          [
            -77.118,
            -12.058
          ],
          [
            -77.1147,
            -12.0587
          ],
          [
            -77.1113,
            -12.0593
          ],
          [
            -77.108,
            -12.06
          ],
          [
            -77.1047,
            -12.0603
          ],
          [
            -77.1013,
            -12.0607
          ],
          [
            -77.098,
            -12.061
          ],
          [
            -77.0947,
            -12.0612
          ],
          [
            -77.0913,
            -12.0613
          ],
          [
            -77.088,
            -12.0615
          ],
          [
            -77.085,
            -12.0617
          ],
          [
            -77.082,
            -12.0618
          ],
          [
            -77.079,
            -12.062
          ],
          [
            -77.076,
            -12.0622
          ],
          [
            -77.073,
            -12.0623
          ],
          [
            -77.07,
            -12.0625
          ],
          [
            -77.067,
            -12.0627
          ],
          [
            -77.064,
            -12.0628
          ],
          [
            -77.061,
            -12.063
          ],
          [
            -77.058,
            -12.0623
          ],
          [
            -77.055,
            -12.0617
          ],
          [
            -77.052,
            -12.061
          ],
          [
            -77.0493,
            -12.0602
          ],
          [
            -77.0467,
            -12.0593
          ],
          [
            -77.044,
            -12.0585
          ],
          [
            -77.0417,
            -12.0577
          ],
          [
            -77.0393,
            -12.057
          ],
          [
            -77.037,
            -12.0562
          ],
          [
            -77.0343,
            -12.0588
          ],
          [
            -77.0317,
            -12.0614
          ],
          [
            -77.029,
            -12.064
          ],
          [
            -77.0263,
            -12.0642
          ],
          [
            -77.0237,
            -12.0643
          ],
          [
            -77.021,
            -12.0645
          ],
          [
            -77.0187,
            -12.0648
          ],
          [
            -77.0163,
            -12.0652
          ],
          [
            -77.014,
            -12.0655
          ],
          [
            -77.011,
            -12.0623
          ],
          [
            -77.008,
            -12.0592
          ],
          [
            -77.005,
            -12.056
          ],
          [
            -77.0017,
            -12.0543
          ],
          [
            -76.9983,
            -12.0527
          ],
          [
            -76.995,
            -12.051
          ],
          [
            -76.9917,
            -12.0493
          ],
          [
            -76.9883,
            -12.0477
          ],
          [
            -76.985,
            -12.046
          ],
          [
            -76.982,
            -12.045
          ],
          [
            -76.979,
            -12.044
          ],
          [
            -76.976,
            -12.043
          ],
          [
            -76.9727,
            -12.043
          ],
          [
            -76.9693,
            -12.043
          ],
          [
            -76.966,
            -12.043
          ],
          [
            -76.9627,
            -12.0433
          ],
          [
            -76.9593,
            -12.0437
          ],
          [
            -76.956,
            -12.044
          ],
          [
            -76.953,
            -12.0443
          ],
          [
            -76.95,
            -12.0447
          ],
          [
            -76.947,
            -12.045
          ],
          [
            -76.9443,
            -12.0453
          ],
          [
            -76.9417,
            -12.0457
          ],
          [
            -76.939,
            -12.046
          ],
          [
            -76.9363,
            -12.047
          ],
          [
            -76.9337,
            -12.048
          ],
          [
            -76.931,
            -12.049
          ],
          [
            -76.9283,
            -12.05
          ],
          [
            -76.9257,
            -12.051
          ],
          [
            -76.923,
            -12.052
          ],
          [
            -76.9203,
            -12.0532
          ],
          [
            -76.9177,
            -12.0543
          ],
          [
            -76.915,
            -12.0555
          ]
        ]
      }
    },
    {
      "type": "Feature",
      "properties": {
        "id": "L3",
        "name": "Metro de Lima — Línea 3 (proyectada)",
        "mode": "metro",
        "status": "planned",
        "color": "#0D47A1"
      },
      "geometry": {
        "type": "LineString",
        "coordinates": [
          [
            -77.05,
            -11.92
          ],
          [
            -77.0517,
            -11.942
          ],
          [
            -77.0533,
            -11.964
          ],
          [
            -77.055,
            -11.986
          ],
          [
            -77.0523,
            -12.004
          ],
          [
            -77.0497,
            -12.022
          ],
          [
            -77.047,
            -12.04
          ],
          [
            -77.0433,
            -12.044
          ],
          [
            -77.0397,
            -12.048
          ],
          [
            -77.036,
            -12.052
          ],
          [
            -77.0323,
            -12.0587
          ],
          [
            -77.0287,
            -12.0653
          ],
          [
            -77.025,
            -12.072
          ],
          [
            -77.0217,
            -12.0807
          ],
          [
            -77.0183,
            -12.0893
          ],
          [
            -77.015,
            -12.098
          ],
          [
            -77.0067,
            -12.116
          ],
          [
            -76.9983,
            -12.134
          ],
          [
            -76.99,
            -12.152
          ]
        ]
      }
    },
    {
      "type": "Feature",
      "properties": {
        "id": "L4",
        "name": "Metro de Lima — Línea 4 (proyectada)",
        "mode": "metro",
        "status": "planned",
        "color": "#00838F"
      },
      "geometry": {
        "type": "LineString",
        "coordinates": [
          [
            -77.108,
            -12.01
          ],
          [
            -77.1083,
            -12.0143
          ],
          [
            -77.1087,
            -12.0187
          ],
          [
            -77.109,
            -12.023
          ],
          [
            -77.1053,
            -12.0317
          ],
          [
            -77.1017,
            -12.0403
          ],
          [
            -77.098,
            -12.049
          ],
          [
            -77.0963,
            -12.0533
          ],
          [
            -77.0947,
            -12.0577
          ],
          [
            -77.093,
            -12.062
          ],
          [
            -77.092,
            -12.0657
          ],
          [
            -77.091,
            -12.0693
          ],
          [
            -77.09,
            -12.073
          ]
        ]
      }
    },
    {
      "type": "Feature",
      "properties": {
        "id": "MET",
        "name": "Metropolitano (BRT)",
        "mode": "brt",
        "status": "operational",
        "color": "#00A0DF"
      },
      "geometry": {
        "type": "LineString",
        "coordinates": [
          [
            -77.018,
            -11.871
          ],
          [
            -77.0197,
            -11.8767
          ],
          [
            -77.0213,
            -11.8823
          ],
          [
            -77.023,
            -11.888
          ],
          [
            -77.0243,
            -11.8923
          ],
          [
            -77.0257,
            -11.8967
          ],
          [
            -77.027,
            -11.901
          ],
          [
            -77.028,
            -11.9033
          ],
          [
            -77.029,
            -11.9057
          ],
          [
            -77.03,
            -11.908
          ],
          [
            -77.031,
            -11.9107
          ],
          [
            -77.032,
            -11.9133
          ],
          [
            -77.033,
            -11.916
          ],
          [
            -77.034,
            -11.9187
          ],
          [
            -77.035,
            -11.9213
          ],
          [
            -77.036,
            -11.924
          ],
          [
            -77.0373,
            -11.927
          ],
          [
            -77.0387,
            -11.93
          ],
          [
            -77.04,
            -11.933
          ],
          [
            -77.0413,
            -11.936
          ],
          [
            -77.0427,
            -11.939
          ],
          [
            -77.044,
            -11.942
          ],
          [
            -77.045,
            -11.9443
          ],
          [
            -77.046,
            -11.9467
          ],
          [
            -77.047,
            -11.949
          ],
          [
            -77.0503,
            -11.9513
          ],
          [
            -77.0537,
            -11.9537
          ],
          [
            -77.057,
            -11.956
          ],
          [
            -77.0573,
            -11.9593
          ],
          [
            -77.0577,
            -11.9627
          ],
          [
            -77.058,
            -11.966
          ],
          [
            -77.0583,
            -11.9693
          ],
          [
            -77.0587,
            -11.9727
          ],
          [
            -77.059,
            -11.976
          ],
          [
            -77.0593,
            -11.9793
          ],
          [
            -77.0597,
            -11.9827
          ],
          [
            -77.06,
            -11.986
          ],
          [
            -77.0602,
            -11.9893
          ],
          [
            -77.0603,
            -11.9927
          ],
          [
            -77.0605,
            -11.996
          ],
          [
            -77.0607,
            -11.999
          ],
          [
            -77.0608,
            -12.002
          ],
          [
            -77.061,
            -12.005
          ],
          [
            -77.0608,
            -12.0077
          ],
          [
            -77.0607,
            -12.0103
          ],
          [
            -77.0605,
            -12.013
          ],
          [
            -77.0603,
            -12.0157
          ],
          [
            -77.0602,
            -12.0183
          ],
          [
            -77.06,
            -12.021
          ],
          [
            -77.059,
            -12.0223
          ],
          [
            -77.058,
            -12.0237
          ],
          [
            -77.057,
            -12.025
          ],
          [
            -77.0557,
            -12.0277
          ],
          [
            -77.0543,
            -12.0303
          ],
          [
            -77.053,
            -12.033
          ],
          [
            -77.051,
            -12.0353
          ],
          [
            -77.049,
            -12.0377
          ],
          [
            -77.047,
            -12.04
          ],
          [
            -77.0457,
            -12.0423
          ],
          [
            -77.0443,
            -12.0447
          ],
          [
            -77.043,
            -12.047
          ],
          [
            -77.0423,
            -12.0483
          ],
          [
            -77.0417,
            -12.0497
          ],
          [
            -77.041,
            -12.051
          ],
          [
            -77.0403,
            -12.0517
          ],
          [
            -77.0397,
            -12.0523
          ],
          [
            -77.039,
            -12.053
          ],
          [
            -77.0384,
            -12.0538
          ],
          [
            -77.0378,
            -12.0547
          ],
          [
            -77.0372,
            -12.0555
          ],
          [
            -77.0374,
            -12.0562
          ],
          [
            -77.0376,
            -12.0568
          ],
          [
            -77.0378,
            -12.0575
          ],
          [
            -77.0371,
            -12.0585
          ],
          [
            -77.0365,
            -12.0595
          ],
          [
            -77.0358,
            -12.0605
          ],
          [
            -77.035,
            -12.0627
          ],
          [
            -77.0343,
            -12.0648
          ],
          [
            -77.0335,
            -12.067
          ],
          [
            -77.0323,
            -12.07
          ],
          [
            -77.0312,
            -12.073
          ],
          [
            -77.03,
            -12.076
          ],
          [
            -77.0287,
            -12.0783
          ],
          [
            -77.0273,
            -12.0807
          ],
          [
            -77.026,
            -12.083
          ],
          [
            -77.0248,
            -12.086
          ],
          [
            -77.0237,
            -12.089
          ],
          [
            -77.0225,
            -12.092
          ],
          [
            -77.0227,
            -12.094
          ],
          [
            -77.0228,
            -12.096
          ],
          [
            -77.023,
            -12.098
          ],
          [
            -77.0233,
            -12.1003
          ],
          [
            -77.0237,
            -12.1027
          ],
          [
            -77.024,
            -12.105
          ],
          [
            -77.0242,
            -12.1067
          ],
          [
            -77.0243,
            -12.1083
          ],
          [
            -77.0245,
            -12.11
          ],
          [
            -77.0247,
            -12.1117
          ],
          [
            -77.0248,
            -12.1133
          ],
          [
            -77.025,
            -12.115
          ],
          [
            -77.0251,
            -12.1167
          ],
          [
            -77.0251,
            -12.1183
          ],
          [
            -77.0252,
            -12.12
          ],
          [
            -77.0254,
            -12.1217
          ],
          [
            -77.0256,
            -12.1233
          ],
          [
            -77.0258,
            -12.125
          ],
          [
            -77.0259,
            -12.1267
          ],
          [
            -77.0259,
            -12.1283
          ],
          [
            -77.026,
            -12.13
          ],
          [
            -77.0259,
            -12.1315
          ],
          [
            -77.0259,
            -12.133
          ],
          [
            -77.0258,
            -12.1345
          ],
          [
            -77.0249,
            -12.1373
          ],
          [
            -77.0239,
            -12.1402
          ],
          [
            -77.023,
            -12.143
          ],
          [
            -77.0223,
            -12.145
          ],
          [
            -77.0217,
            -12.147
          ],
          [
            -77.021,
            -12.149
          ],
          [
            -77.0197,
            -12.1513
          ],
          [
            -77.0183,
            -12.1537
          ],
          [
            -77.017,
            -12.156
          ],
          [
            -77.0157,
            -12.159
          ],
          [
            -77.0143,
            -12.162
          ],
          [
            -77.013,
            -12.165
          ],
          [
            -77.0117,
            -12.1673
          ],
          [
            -77.0103,
            -12.1697
          ],
          [
            -77.009,
            -12.172
          ]
        ]
      }
    },
    {
      "type": "Feature",
      "properties": {
        "id": "CR",
        "name": "Corredor Rojo",
        "mode": "corredor",
        "status": "operational",
        "color": "#E4002B"
      },
      "geometry": {
        "type": "LineString",
        "coordinates": [
          [
            -76.943,
            -12.073
          ],
          [
            -76.9493,
            -12.0753
          ],
          [
            -76.9557,
            -12.0777
          ],
          [
            -76.962,
            -12.08
          ],
          [
            -76.9707,
            -12.0828
          ],
          [
            -76.9793,
            -12.0857
          ],
          [
            -76.988,
            -12.0885
          ],
          [
            -76.9947,
            -12.0895
          ],
          [
            -77.0013,
            -12.0905
          ],
          [
            -77.008,
            -12.0915
          ],
          [
            -77.0127,
            -12.0917
          ],
          [
            -77.0173,
            -12.0918
          ],
          [
            -77.022,
            -12.092
          ],
          [
            -77.025,
            -12.0923
          ],
          [
            -77.028,
            -12.0927
          ],
          [
            -77.031,
            -12.093
          ],
          [
            -77.0357,
            -12.092
          ],
          [
            -77.0403,
            -12.091
          ],
          [
            -77.045,
            -12.09
          ],
          [
            -77.05,
            -12.0877
          ],
          [
            -77.055,
            -12.0853
          ],
          [
            -77.06,
            -12.083
          ],
          [
            -77.0667,
            -12.0817
          ],
          [
            -77.0733,
            -12.0803
          ],
          [
            -77.08,
            -12.079
          ],
          [
            -77.0847,
            -12.0773
          ],
          [
            -77.0893,
            -12.0757
          ],
          [
            -77.094,
            -12.074
          ],
          [
            -77.0953,
            -12.07
          ],
          [
            -77.0967,
            -12.066
          ],
          [
            -77.098,
            -12.062
          ],
          [
            -77.1013,
            -12.0593
          ],
          [
            -77.1047,
            -12.0567
          ],
          [
            -77.108,
            -12.054
          ]
        ]
      }
    },
    {
      "type": "Feature",
      "properties": {
        "id": "CA",
        "name": "Corredor Azul",
        "mode": "corredor",
        "status": "operational",
        "color": "#1565C0"
      },
      "geometry": {
        "type": "LineString",
        "coordinates": [
          [
            -77.035,
            -12.043
          ],
          [
            -77.036,
            -12.0453
          ],
          [
            -77.037,
            -12.0477
          ],
          [
            -77.038,
            -12.05
          ],
          [
            -77.0379,
            -12.0513
          ],
          [
            -77.0379,
            -12.0527
          ],
          [
            -77.0378,
            -12.054
          ],
          [
            -77.0376,
            -12.0555
          ],
          [
            -77.0374,
            -12.057
          ],
          [
            -77.0372,
            -12.0585
          ],
          [
            -77.0363,
            -12.0612
          ],
          [
            -77.0354,
            -12.0638
          ],
          [
            -77.0345,
            -12.0665
          ],
          [
            -77.0342,
            -12.071
          ],
          [
            -77.0338,
            -12.0755
          ],
          [
            -77.0335,
            -12.08
          ],
          [
            -77.0332,
            -12.0838
          ],
          [
            -77.0328,
            -12.0877
          ],
          [
            -77.0325,
            -12.0915
          ],
          [
            -77.0317,
            -12.0973
          ],
          [
            -77.0308,
            -12.1032
          ],
          [
            -77.03,
            -12.109
          ],
          [
            -77.0297,
            -12.112
          ],
          [
            -77.0295,
            -12.115
          ],
          [
            -77.0292,
            -12.118
          ],
          [
            -77.0293,
            -12.1192
          ],
          [
            -77.0294,
            -12.1203
          ],
          [
            -77.0295,
            -12.1215
          ],
          [
            -77.0293,
            -12.1243
          ],
          [
            -77.0292,
            -12.1272
          ],
          [
            -77.029,
            -12.13
          ]
        ]
      }
    },
    {
      "type": "Feature",
      "properties": {
        "id": "CM",
        "name": "Corredor Morado",
        "mode": "corredor",
        "status": "operational",
        "color": "#7B2D8E"
      },
      "geometry": {
        "type": "LineString",
        "coordinates": [
          [
            -76.985,
            -11.987
          ],
          [
            -76.9882,
            -11.9913
          ],
          [
            -76.9913,
            -11.9957
          ],
          [
            -76.9945,
            -12.0
          ],
          [
            -76.9963,
            -12.005
          ],
          [
            -76.9982,
            -12.01
          ],
          [
            -77.0,
            -12.015
          ],
          [
            -77.0018,
            -12.0195
          ],
          [
            -77.0037,
            -12.024
          ],
          [
            -77.0055,
            -12.0285
          ],
          [
            -77.0072,
            -12.0307
          ],
          [
            -77.0088,
            -12.0328
          ],
          [
            -77.0105,
            -12.035
          ],
          [
            -77.0147,
            -12.0367
          ],
          [
            -77.0188,
            -12.0383
          ],
          [
            -77.023,
            -12.04
          ],
          [
            -77.0252,
            -12.0418
          ],
          [
            -77.0273,
            -12.0437
          ],
          [
            -77.0295,
            -12.0455
          ],
          [
            -77.0293,
            -12.048
          ],
          [
            -77.0292,
            -12.0505
          ],
          [
            -77.029,
            -12.053
          ],
          [
            -77.0283,
            -12.0548
          ],
          [
            -77.0277,
            -12.0567
          ],
          [
            -77.027,
            -12.0585
          ],
          [
            -77.0263,
            -12.0597
          ],
          [
            -77.0257,
            -12.0608
          ],
          [
            -77.025,
            -12.062
          ]
        ]
      }
    },
    {
      "type": "Feature",
      "properties": {
        "id": "_costa",
        "name": "Línea de costa de Lima",
        "mode": "ref",
        "status": "reference",
        "color": "#8AB4C8"
      },
      "geometry": {
        "type": "LineString",
        "coordinates": [
          [
            -77.173,
            -11.775
          ],
          [
            -77.165,
            -11.825
          ],
          [
            -77.152,
            -11.87
          ],
          [
            -77.135,
            -11.915
          ],
          [
            -77.118,
            -11.96
          ],
          [
            -77.105,
            -12.0
          ],
          [
            -77.1,
            -12.04
          ],
          [
            -77.09,
            -12.08
          ],
          [
            -77.05,
            -12.12
          ],
          [
            -77.03,
            -12.155
          ],
          [
            -77.025,
            -12.19
          ],
          [
            -76.99,
            -12.225
          ],
          [
            -76.955,
            -12.26
          ],
          [
            -76.91,
            -12.305
          ],
          [
            -76.86,
            -12.355
          ],
          [
            -76.82,
            -12.405
          ],
          [
            -76.795,
            -12.455
          ],
          [
            -76.79,
            -12.48
          ]
        ]
      }
    }
  ]
}